[{"OBJECT_NAME":"YUNHAI-2 01D","OBJECT_ID":"2018-112D","EPOCH":"2026-03-09T23:06:26.804736","MEAN_MOTION":14.28986233,"ECCENTRICITY":0.00157828,"INCLINATION":50.0122,"RA_OF_ASC_NODE":348.6213,"ARG_OF_PERICENTER":356.8631,"MEAN_ANOMALY":3.2183,"EPHEMERIS_TYPE":0,"CLASSIFICATION_TYPE":"U","NORAD_CAT_ID":43912,"ELEMENT_SET_NO":999,"REV_AT_EPOCH":37339,"BSTAR":0.00013763161,"MEAN_MOTION_DOT":1.89e-6,"MEAN_MOTION_DDOT":0},{"OBJECT_NAME":"CZ-6A DEB","OBJECT_ID":"2022-151DG","EPOCH":"2026-03-09T12:39:04.428576","MEAN_MOTION":14.23113199,"ECCENTRICITY":0.00372525,"INCLINATION":98.7667,"RA_OF_ASC_NODE":85.0038,"ARG_OF_PERICENTER":104.9082,"MEAN_ANOMALY":255.6225,"EPHEMERIS_TYPE":0,"CLASSIFICATION_TYPE":"U","NORAD_CAT_ID":54384,"ELEMENT_SET_NO":999,"REV_AT_EPOCH":17165,"BSTAR":0.00081291931,"MEAN_MOTION_DOT":1.804e-5,"MEAN_MOTION_DDOT":0}]
